[Satellite]
VERSION=1.1
NAME=O3B FM4
NICKNAME=O3B FM4
TLE1=1 39189U 13031B   15049.35811461 -.00000022  00000-0  00000+0 0  9990
TLE2=2 39189   0.0450   2.8980 0003396 238.0746 118.9862  5.00116175 30159
